[{"OBJECT_NAME":"STARLINK-1635","OBJECT_ID":"2020-057BH","EPOCH":"2026-03-10T00:00:02.999808","MEAN_MOTION":15.60509087,"ECCENTRICITY":0.00033523,"INCLINATION":53.0441,"RA_OF_ASC_NODE":256.1073,"ARG_OF_PERICENTER":0.6018,"MEAN_ANOMALY":192.2172,"EPHEMERIS_TYPE":0,"CLASSIFICATION_TYPE":"U","NORAD_CAT_ID":46172,"ELEMENT_SET_NO":999,"REV_AT_EPOCH":593,"BSTAR":0.0025741102,"MEAN_MOTION_DOT":0.0022161,"MEAN_MOTION_DDOT":0},{"OBJECT_NAME":"STARLINK-1826","OBJECT_ID":"2020-073BF","EPOCH":"2026-03-10T00:00:02.999808","MEAN_MOTION":15.6009455,"ECCENTRICITY":0.00053849,"INCLINATION":53.0471,"RA_OF_ASC_NODE":178.9606,"ARG_OF_PERICENTER":209.9765,"MEAN_ANOMALY":60.9512,"EPHEMERIS_TYPE":0,"CLASSIFICATION_TYPE":"U","NORAD_CAT_ID":46723,"ELEMENT_SET_NO":999,"REV_AT_EPOCH":583,"BSTAR":0.0016085748,"MEAN_MOTION_DOT":0.00134686,"MEAN_MOTION_DDOT":0}]
